$$SOE
2460147.500000000, A.D. 2023-Jul-22 00:00:00.0000, 1.213909564574918E+08, -3.574623666365848E+08, 4.726489066564202E+06,
2460154.500000000, A.D. 2023-Jul-29 00:00:00.0000, 1.314863516579670E+08, -3.525742920569422E+08, 4.682415608759865E+06,
2460161.500000000, A.D. 2023-Aug-05 00:00:00.0000, 1.414619298395603E+08, -3.473650730153110E+08, 4.634077951755196E+06,
2460168.500000000, A.D. 2023-Aug-12 00:00:00.0000, 1.513073318531144E+08, -3.418363350463914E+08, 4.581478618978828E+06,
2460175.500000000, A.D. 2023-Aug-19 00:00:00.0000, 1.610121109537831E+08, -3.359900277814617E+08, 4.524624038679376E+06,
2460182.500000000, A.D. 2023-Aug-26 00:00:00.0000, 1.705657408680736E+08, -3.298284360065984E+08, 4.463524704409227E+06,
2460189.500000000, A.D. 2023-Sep-02 00:00:00.0000, 1.799576246654501E+08, -3.233541908660269E+08, 4.398195332953632E+06,
2460196.500000000, A.D. 2023-Sep-09 00:00:00.0000, 1.891771045093187E+08, -3.165702812107996E+08, 4.328655012713030E+06,
2460203.500000000, A.D. 2023-Sep-16 00:00:00.0000, 1.982134724935151E+08, -3.094800651018263E+08, 4.254927321907476E+06,
2460210.500000000, A.D. 2023-Sep-23 00:00:00.0000, 2.070559830186136E+08, -3.020872811262903E+08, 4.177040401538938E+06,
2460217.500000000, A.D. 2023-Sep-30 00:00:00.0000, 2.156938664044304E+08, -2.943960582781708E+08, 4.095027111317307E+06,
2460224.500000000, A.D. 2023-Oct-07 00:00:00.0000, 2.241163414168841E+08, -2.864109248801932E+08, 4.008925439463854E+06,
2460231.500000000, A.D. 2023-Oct-14 00:00:00.0000, 2.323126277775883E+08, -2.781368197857741E+08, 3.918778799137071E+06,
2460238.500000000, A.D. 2023-Oct-21 00:00:00.0000, 2.402719619121411E+08, -2.695791041779708E+08, 3.824636045245737E+06,
2460245.500000000, A.D. 2023-Oct-28 00:00:00.0000, 2.479836145372400E+08, -2.607435716224571E+08, 3.726551526268527E+06,
2460252.500000000, A.D. 2023-Nov-04 00:00:00.0000, 2.554369088551291E+08, -2.516364570572120E+08, 3.624585222056061E+06,
2460259.500000000, A.D. 2023-Nov-11 00:00:00.0000, 2.626212395449873E+08, -2.422644452249814E+08, 3.518802901447088E+06,
2460266.500000000, A.D. 2023-Nov-18 00:00:00.0000, 2.695260927761302E+08, -2.326346785134772E+08, 3.409276273356333E+06,
2460273.500000000, A.D. 2023-Nov-25 00:00:00.0000, 2.761410673136888E+08, -2.227547640766596E+08, 3.296083125467166E+06,
2460280.500000000, A.D. 2023-Dec-02 00:00:00.0000, 2.824558967336751E+08, -2.126327801398643E+08, 3.179307445814744E+06,
2460287.500000000, A.D. 2023-Dec-09 00:00:00.0000, 2.884604728031362E+08, -2.022772814342724E+08, 3.059039513703883E+06,
2460294.500000000, A.D. 2023-Dec-16 00:00:00.0000, 2.941448702806058E+08, -1.916973036289842E+08, 2.935375932728156E+06,
2460301.500000000, A.D. 2023-Dec-23 00:00:00.0000, 2.994993734457535E+08, -1.809023659517076E+08, 2.808419628622301E+06,
2460308.500000000, A.D. 2023-Dec-30 00:00:00.0000, 3.045145029690592E+08, -1.699024708304117E+08, 2.678280019572914E+06,
2460315.500000000, A.D. 2024-Jan-06 00:00:00.0000, 3.091810412829506E+08, -1.587081027990365E+08, 2.545073326947384E+06,
2460322.500000000, A.D. 2024-Jan-13 00:00:00.0000, 3.134900595434670E+08, -1.473302283520283E+08, 2.408922585323036E+06,
2460329.500000000, A.D. 2024-Jan-20 00:00:00.0000, 3.174329473112677E+08, -1.357802935411800E+08, 2.269957489513233E+06,
2460336.500000000, A.D. 2024-Jan-27 00:00:00.0000, 3.210014428169404E+08, -1.240702185466153E+08, 2.128314316223115E+06,
2460343.500000000, A.D. 2024-Feb-03 00:00:00.0000, 3.241876632607443E+08, -1.122123900606610E+08, 1.984135880379498E+06,
2460350.500000000, A.D. 2024-Feb-10 00:00:00.0000, 3.269841352871583E+08, -1.002196516723754E+08, 1.837571475179747E+06,
2460357.500000000, A.D. 2024-Feb-17 00:00:00.0000, 3.293838256212001E+08, -8.810529214986311E+07, 1.688776782177333E+06,
2460364.500000000, A.D. 2024-Feb-24 00:00:00.0000, 3.313801717367530E+08, -7.588303152124251E+07, 1.537913747893281E+06,
2460371.500000000, A.D. 2024-Mar-02 00:00:00.0000, 3.329671124072239E+08, -6.356700491558774E+07, 1.385150420374352E+06,
2460378.500000000, A.D. 2024-Mar-09 00:00:00.0000, 3.341391180843312E+08, -5.117174417115714E+07, 1.230660726579182E+06,
2460385.500000000, A.D. 2024-Mar-16 00:00:00.0000, 3.348912212918512E+08, -3.871215697347672E+07, 1.074624169057241E+06,
2460392.500000000, A.D. 2024-Mar-23 00:00:00.0000, 3.352190467134590E+08, -2.620350238770115E+07, 9.172255414517783E+05,
2460399.500000000, A.D. 2024-Mar-30 00:00:00.0000, 3.351188385183811E+08, -1.366136280807787E+07, 7.586548669442628E+05,
2460406.500000000, A.D. 2024-Apr-06 00:00:00.0000, 3.345874849581908E+08, -1.101615718565241E+06, 5.991072611439896E+05,
2460413.500000000, A.D. 2024-Apr-13 00:00:00.0000, 3.336225435481823E+08, 1.145959552293544E+07, 4.387824615852446E+05,
2460420.500000000, A.D. 2024-Apr-20 00:00:00.0000, 3.322222656406186E+08, 2.400589448190976E+07, 2.778843300232608E+05,
2460427.500000000, A.D. 2024-Apr-27 00:00:00.0000, 3.303856186323187E+08, 3.652070736606269E+07, 1.166204211081360E+05,
2460434.500000000, A.D. 2024-May-04 00:00:00.0000, 3.281123056536736E+08, 4.898730083990931E+07, -4.479844776891172E+04,
2460441.500000000, A.D. 2024-May-11 00:00:00.0000, 3.254027827448800E+08, 6.138882169109537E+07, -2.061586545269154E+05,
2460448.500000000, A.D. 2024-May-18 00:00:00.0000, 3.222582733879412E+08, 7.370833820561272E+07, -3.672442616447583E+05,
2460455.500000000, A.D. 2024-May-25 00:00:00.0000, 3.186807802286159E+08, 8.592888305228412E+07, -5.278375359864943E+05,
2460462.500000000, A.D. 2024-Jun-01 00:00:00.0000, 3.146730938775389E+08, 9.803349739645903E+07, -6.877195057131499E+05,
2460469.500000000, A.D. 2024-Jun-08 00:00:00.0000, 3.102387988836953E+08, 1.100052759699742E+08, -8.466705755043179E+05,
2460476.500000000, A.D. 2024-Jun-15 00:00:00.0000, 3.053822771420464E+08, 1.218274133685955E+08, -1.004471189607486E+06,
2460483.500000000, A.D. 2024-Jun-22 00:00:00.0000, 3.001087076083595E+08, 1.334832524648112E+08, -1.160902351352222E+06,
2460490.500000000, A.D. 2024-Jun-29 00:00:00.0000, 2.944240601159979E+08, 1.449563328240352E+08, -1.315745948510930E+06,
2460497.500000000, A.D. 2024-Jul-06 00:00:00.0000, 2.883350858979929E+08, 1.562304363440621E+08, -1.468785325131267E+06,
2460504.500000000, A.D. 2024-Jul-13 00:00:00.0000, 2.818493067425388E+08, 1.672896326190250E+08, -1.619806044646338E+06,
2460511.500000000, A.D. 2024-Jul-20 00:00:00.0000, 2.749750008063616E+08, 1.781183248553736E+08, -1.768596564118467E+06,
2460518.500000000, A.D. 2024-Jul-27 00:00:00.0000, 2.677211844794852E+08, 1.887012950614830E+08, -1.914948833504483E+06,
2460525.500000000, A.D. 2024-Aug-03 00:00:00.0000, 2.600975906596382E+08, 1.990237478209758E+08, -2.058658871491909E+06,
2460532.500000000, A.D. 2024-Aug-10 00:00:00.0000, 2.521146437209693E+08, 2.090713523389986E+08, -2.199527329550952E+06,
2460539.500000000, A.D. 2024-Aug-17 00:00:00.0000, 2.437834313756387E+08, 2.188302824901150E+08, -2.337360043010682E+06,
2460546.500000000, A.D. 2024-Aug-24 00:00:00.0000, 2.351156736380175E+08, 2.282872545699842E+08, -2.471968569951609E+06,
2460553.500000000, A.D. 2024-Aug-31 00:00:00.0000, 2.261236892176721E+08, 2.374295624355408E+08, -2.603170730135947E+06,
2460560.500000000, A.D. 2024-Sep-07 00:00:00.0000, 2.168203599445356E+08, 2.462451099318804E+08, -2.730791164121151E+06,
2460567.500000000, A.D. 2024-Sep-14 00:00:00.0000, 2.072190935739404E+08, 2.547224413978529E+08, -2.854661836767986E+06,
2460574.500000000, A.D. 2024-Sep-21 00:00:00.0000, 1.973337832159610E+08, 2.628507704816362E+08, -2.974622263077125E+06,
2460581.500000000, A.D. 2024-Sep-28 00:00:00.0000, 1.871787631860836E+08, 2.706200039011264E+08, -3.090519671892986E+06,
2460588.500000000, A.D. 2024-Oct-05 00:00:00.0000, 1.767687652591230E+08, 2.780207600532551E+08, -3.202209442258641E+06,
2460595.500000000, A.D. 2024-Oct-12 00:00:00.0000, 1.661188752813788E+08, 2.850443853745518E+08, -3.309555535329252E+06,
2460602.500000000, A.D. 2024-Oct-19 00:00:00.0000, 1.552444887006035E+08, 2.916829681387534E+08, -3.412430782253131E+06,
2460609.500000000, A.D. 2024-Oct-26 00:00:00.0000, 1.441612652927929E+08, 2.979293488846008E+08, -3.510717089719072E+06,
2460616.500000000, A.D. 2024-Nov-02 00:00:00.0000, 1.328850836511176E+08, 3.037771273530581E+08, -3.604305598665386E+06,
2460623.500000000, A.D. 2024-Nov-09 00:00:00.0000, 1.214319958331269E+08, 3.092206660129651E+08, -3.693096803538144E+06,
2460630.500000000, A.D. 2024-Nov-16 00:00:00.0000, 1.098181824796226E+08, 3.142550902622526E+08, -3.777000635031208E+06,
2460637.500000000, A.D. 2024-Nov-23 00:00:00.0000, 9.805990872443452E+07, 3.188762853674412E+08, -3.855936515553251E+06,
2460644.500000000, A.D. 2024-Nov-30 00:00:00.0000, 8.617348135725687E+07, 3.230808902342540E+08, -3.929833411077723E+06,
2460651.500000000, A.D. 2024-Dec-07 00:00:00.0000, 7.417520789175491E+07, 3.268662885866931E+08, -3.998629884817243E+06,
2460658.500000000, A.D. 2024-Dec-14 00:00:00.0000, 6.208135706223663E+07, 3.302305989532540E+08, -4.062273991609275E+06,
2460665.500000000, A.D. 2024-Dec-21 00:00:00.0000, 4.990811861637538E+07, 3.331726623996069E+08, -4.120722903678477E+06,
2460672.500000000, A.D. 2024-Dec-28 00:00:00.0000, 3.767156452523862E+07, 3.356920252361820E+08, -4.173942691785067E+06,
2460679.500000000, A.D. 2025-Jan-04 00:00:00.0000, 2.538761433842999E+07, 3.377889193033696E+08, -4.221908308320016E+06,
2460686.500000000, A.D. 2025-Jan-11 00:00:00.0000, 1.307200297980382E+07, 3.394642417207596E+08, -4.264603473296449E+06,
2460693.500000000, A.D. 2025-Jan-18 00:00:00.0000, 7.402501579100208E+05, 3.407195334034052E+08, -4.302020457020983E+06,
2460700.500000000, A.D. 2025-Jan-25 00:00:00.0000, -1.159236829643578E+07, 3.415569560902133E+08, -4.334159823216125E+06,
2460707.500000000, A.D. 2025-Feb-01 00:00:00.0000, -2.391084692974427E+07, 3.419792680654218E+08, -4.361030154781207E+06,
2460714.500000000, A.D. 2025-Feb-08 00:00:00.0000, -3.620047492465901E+07, 3.419897987948374E+08, -4.382647767622948E+06,
$$EOE